[
    {
        "Altitude(m)": 605470.797304615,
        "Argument of Periapsis(deg)": 0.0,
        "Eccentricity": 0.0,
        "Inclination(deg)": 60.0,
        "Latitude(deg)": 27.98822987047497,
        "Longitude(deg)": 77.26292260300661,
        "Mean Anomaly(deg)": 147.2727,
        "RAAN(deg)": 15.0,
        "Satellite Name": "Test1 75",
        "Satellite Number": 75,
        "Semi-Major Axis(m)": 6980739.136638005,
        "Time(s)": 0
    },
    {
        "Altitude(m)": 605395.8351850598,
        "Argument of Periapsis(deg)": 0.00010418945913296404,
        "Eccentricity": 0.0,
        "Inclination(deg)": 60.0,
        "Latitude(deg)": 27.473920855000454,
        "Longitude(deg)": 77.61611098405818,
        "Mean Anomaly(deg)": 147.8928061454618,
        "RAAN(deg)": 14.999579950860259,
        "Satellite Name": "Test1 75",
        "Satellite Number": 75,
        "Semi-Major Axis(m)": 6980739.136638005,
        "Time(s)": 10
    }
]